     2.10           GLONASS NAV DATA                        RINEX VERSION / TYPE
TPP                 Reference Data Shop 2020-03-10 05:04:24 PGM / RUN BY / DATE 
                                                            COMMENT             
                                                            COMMENT             
                                                            COMMENT             
  2020     3     9    -.279396772385E-08                    CORR TO SYSTEM TIME 
    18                                                      LEAP SECONDS        
                                                            END OF HEADER       
01 20 03 09 10 45  0.0  .582784414291E-04  .000000000000E+00  .378000000000E+05
    -.168785537109E+05  .234500503540E+01 -.651925802231E-08  .000000000000E+00
    -.847342724609E+04  .122323036194E+00 -.186264514923E-08  .100000000000E+01
     .171405161133E+05  .237126922607E+01 -.931322574615E-09  .000000000000E+00
02 20 03 09 12 15  0.0  .415827147663E-03  .181898940355E-11  .432300000000E+05
    -.202896274414E+05  .202787494659E+01 -.651925802231E-08  .000000000000E+00
    -.214399902344E+03 -.621683120728E+00  .000000000000E+00 -.400000000000E+01
     .155345839844E+05  .264167022705E+01 -.931322574615E-09  .000000000000E+00
03 20 03 09 20 15  0.0  .112429261208E-04  .000000000000E+00  .720000000000E+05
     .900220214844E+03  .233277130127E+01 -.279396772385E-08  .000000000000E+00
    -.127364619141E+05  .193231201172E+01 -.279396772385E-08  .500000000000E+01
    -.220322846680E+05 -.102414989471E+01  .186264514923E-08  .000000000000E+00
04 20 03 09 21 45  0.0  .414513051510E-04  .909494701773E-12  .774600000000E+05
    -.253190332031E+04  .295335483551E+01 -.372529029846E-08  .000000000000E+00
    -.117232031250E+05  .899346351624E+00 -.931322574615E-09  .600000000000E+01
    -.224852607422E+05 -.800683975220E+00  .186264514923E-08  .000000000000E+00
05 20 03 09 21 45  0.0  .464590266347E-04  .909494701773E-12  .774600000000E+05
    -.188882084961E+05  .160850524902E+01 -.465661287308E-08  .000000000000E+00
    -.116587119141E+05  .628469467163E+00 -.372529029846E-08  .100000000000E+01
    -.125386308594E+05 -.300649166107E+01  .000000000000E+00  .000000000000E+00
06 20 03 09 21 45  0.0  .172649510205E-03  .000000000000E+00  .774600000000E+05
    -.244276743164E+05 -.892378807068E+00 -.279396772385E-08  .000000000000E+00
    -.335951171875E+04 -.102607727051E+00 -.465661287308E-08 -.400000000000E+01
     .647600146484E+04 -.341709709167E+01 -.186264514923E-08  .000000000000E+00
07 20 03 09 17 45  0.0 -.341553241014E-04  .000000000000E+00  .630300000000E+05
     .737478955078E+04  .260523796082E+00 -.186264514923E-08  .000000000000E+00
     .242319819336E+05  .387050628662E+00  .651925802231E-08  .500000000000E+01
    -.315891699219E+04  .353287792206E+01  .931322574615E-09  .000000000000E+00
08 20 03 09 17 45  0.0 -.509442761540E-04  .000000000000E+00  .630000000000E+05
     .120025390625E+05  .670794487000E+00 -.186264514923E-08  .000000000000E+00
     .137550576172E+05  .235273456573E+01  .186264514923E-08  .600000000000E+01
    -.177692060547E+05  .226615333557E+01  .279396772385E-08  .000000000000E+00
09 20 03 09 21 45  0.0  .121025368571E-03  .272848410532E-11  .774600000000E+05
    -.193330776367E+05  .144173145294E+01  .000000000000E+00  .000000000000E+00
     .914590771484E+04 -.125104427338E+01 -.279396772385E-08 -.200000000000E+01
     .139621166992E+05  .281171607971E+01 -.186264514923E-08  .000000000000E+00
10 20 03 09 21 45  0.0 -.561717897654E-04  .000000000000E+00  .774600000000E+05
    -.185409848633E+05  .218910217285E+00  .931322574615E-09  .000000000000E+00
     .174279638672E+05  .760746002197E-02 -.279396772385E-08 -.700000000000E+01
     .108753564453E+04  .357224559784E+01  .000000000000E+00  .000000000000E+00
11 20 03 09 21 45  0.0 -.161612406373E-04 -.909494701773E-12  .774600000000E+05
    -.747666552734E+04 -.153798389435E+01  .186264514923E-08  .000000000000E+00
     .181680317383E+05  .161642932892E+01 -.186264514923E-08  .000000000000E+00
    -.162847055664E+05  .250414752960E+01  .186264514923E-08  .000000000000E+00
12 20 03 09 21 45  0.0  .112566165626E-03  .272848410532E-11  .774300000000E+05
     .694015966797E+04 -.227329826355E+01  .931322574615E-09  .000000000000E+00
     .846217187500E+04  .219208621979E+01  .000000000000E+00 -.100000000000E+01
    -.230188417969E+05  .122800827026E+00  .372529029846E-08  .000000000000E+00
13 20 03 09 14 15  0.0 -.358298420906E-04  .000000000000E+00  .506400000000E+05
    -.114953666992E+05 -.415303230286E+00  .279396772385E-08  .000000000000E+00
    -.221450156250E+05 -.615414619446E+00  .186264514923E-08 -.200000000000E+01
    -.531870947266E+04  .347434711456E+01  .000000000000E+00  .000000000000E+00
14 20 03 09 17 15  0.0  .489382073283E-04  .000000000000E+00  .612000000000E+05
    -.157938261719E+05  .170073604584E+01  .279396772385E-08  .000000000000E+00
    -.143496518555E+05  .884949684143E+00 -.931322574615E-09 -.700000000000E+01
     .139875688477E+05  .282848262787E+01 -.186264514923E-08  .000000000000E+00
15 20 03 09 18 45  0.0  .106099992990E-03  .000000000000E+00  .666300000000E+05
    -.190460502930E+05  .206666755676E+01  .186264514923E-08  .000000000000E+00
    -.768125683594E+04  .175072669983E+00 -.186264514923E-08  .000000000000E+00
     .151395112305E+05  .269182586670E+01 -.279396772385E-08  .000000000000E+00
16 20 03 09 20 15  0.0 -.199396163225E-05 -.909494701773E-12  .720300000000E+05
    -.200788500977E+05  .202298927307E+01  .931322574615E-09  .000000000000E+00
     .963227539063E+02 -.732356071472E+00 -.279396772385E-08 -.100000000000E+01
     .156233427734E+05  .261143112183E+01 -.279396772385E-08  .000000000000E+00
17 20 03 09 17 45  0.0  .307621434331E-03  .272848410532E-11  .630000000000E+05
     .169514453125E+04  .200705909729E+01  .000000000000E+00  .000000000000E+00
    -.146598842773E+05 -.203075981140E+01 -.465661287308E-08  .400000000000E+01
    -.208006396484E+05  .159087753296E+01  .186264514923E-08  .000000000000E+00
18 20 03 09 19 15  0.0  .278931111097E-04  .909494701773E-12  .684300000000E+05
    -.278051074219E+04  .101531410217E+01 -.931322574615E-09  .000000000000E+00
    -.156710517578E+05 -.254181194305E+01 -.465661287308E-08 -.300000000000E+01
    -.198925952148E+05  .186410331726E+01  .931322574615E-09  .000000000000E+00
19 20 03 09 21 15  0.0 -.829687342048E-04 -.181898940355E-11  .756000000000E+05
    -.783820703125E+04 -.350527763367E+00 -.465661287308E-08  .000000000000E+00
    -.198369794922E+05 -.189723110199E+01 -.372529029846E-08  .300000000000E+01
    -.139821899414E+05  .288712406158E+01  .000000000000E+00  .000000000000E+00
20 20 03 09 21 45  0.0 -.406149774790E-03 -.909494701773E-12  .774600000000E+05
    -.113369208984E+05 -.705332756042E+00 -.372529029846E-08  .000000000000E+00
    -.624005371094E+04 -.293397140503E+01 -.279396772385E-08  .200000000000E+01
    -.219586596680E+05  .120171737671E+01  .186264514923E-08  .000000000000E+00
21 20 03 09 21 45  0.0 -.110163353384E-03 -.272848410532E-11  .774600000000E+05
    -.621672558594E+04 -.547871589661E+00  .931322574615E-09  .000000000000E+00
     .138492163086E+05 -.275910282135E+01 -.186264514923E-08  .400000000000E+01
    -.204876596680E+05 -.170005226135E+01  .279396772385E-08  .000000000000E+00
22 20 03 09 21 45  0.0 -.171894207597E-04  .000000000000E+00  .774600000000E+05
     .314878857422E+04  .630102157593E-01  .558793544769E-08  .000000000000E+00
     .247396630859E+05 -.809773445129E+00  .931322574615E-09 -.300000000000E+01
    -.565383154297E+04 -.349015140533E+01  .186264514923E-08  .000000000000E+00
23 20 03 09 14 45  0.0  .291442498565E-03  .181898940355E-11  .522300000000E+05
     .433524316406E+04  .315170669556E+01  .372529029846E-08  .000000000000E+00
    -.101612958984E+05  .805397033691E-01 -.186264514923E-08  .300000000000E+01
    -.229931474609E+05  .559367179871E+00  .186264514923E-08  .000000000000E+00
07 20 03 09 21 45  0.0 -.341543927789E-04  .000000000000E+00  .791700000000E+05
    -.148011127930E+05 -.264699268341E+01  .000000000000E+00  .000000000000E+00
     .560072851563E+04 -.691734313965E+00 -.186264514923E-08  .500000000000E+01
     .200283413086E+05 -.176956653595E+01 -.279396772385E-08  .000000000000E+00
20 20 03 09 22 15  0.0 -.406151637435E-03 -.909494701773E-12  .792000000000E+05
    -.129043935547E+05 -.100441455841E+01 -.465661287308E-08  .000000000000E+00
    -.110862670898E+05 -.241020965576E+01 -.186264514923E-08  .200000000000E+01
    -.189726547852E+05  .209456825256E+01  .931322574615E-09  .000000000000E+00
06 20 03 09 22 15  0.0  .172650441527E-03  .000000000000E+00  .792000000000E+05
    -.252809404297E+05 -.404729843140E-01 -.465661287308E-08  .000000000000E+00
    -.329612744141E+04  .135282516479E+00 -.372529029846E-08 -.400000000000E+01
     .154028320313E+03 -.356161975861E+01 -.931322574615E-09  .000000000000E+00
04 20 03 09 22 15  0.0  .414531677961E-04  .909494701773E-12  .792000000000E+05
     .298627539063E+04  .312786674500E+01 -.186264514923E-08  .000000000000E+00
    -.104800629883E+05  .467250823975E+00  .000000000000E+00  .600000000000E+01
    -.230362675781E+05  .192441940308E+00  .279396772385E-08  .000000000000E+00
12 20 03 09 22 15  0.0  .112571753561E-03  .272848410532E-11  .792000000000E+05
     .321485546875E+04 -.183666610718E+01  .186264514923E-08  .000000000000E+00
     .126159423828E+05  .238060188293E+01  .000000000000E+00 -.100000000000E+01
    -.219087597656E+05  .110265922546E+01  .279396772385E-08  .000000000000E+00
05 20 03 09 22 15  0.0  .464599579573E-04  .909494701773E-12  .792000000000E+05
    -.153108852539E+05  .233969688416E+01 -.465661287308E-08  .000000000000E+00
    -.106253217773E+05  .481820106506E+00 -.279396772385E-08  .100000000000E+01
    -.173946782227E+05 -.235402679443E+01  .931322574615E-09  .000000000000E+00
